KUIPER-00265            
1 67159U 25301AC  26064.41676460  .00004757  00000+0  65266-3 0  9991
2 67159  51.9022 104.5070 0001279  27.4554 332.6476 14.79927863 12855
KUIPER-00159            
1 67764U 26030A   26064.72765912  .00031036  00000+0  89117-3 0  9999
2 67764  51.8850 238.2710 0004771  34.5720 325.5576 15.35567941  4487
KUIPER-00160            
1 67765U 26030B   26064.72889424  .00034487  00000+0  99366-3 0  9995
2 67765  51.8816 238.2707 0005036  43.8923 316.2463 15.35405901  4488
KUIPER-00177            
1 67766U 26030C   26064.71649639  .00034429  00000+0  96276-3 0  9990
2 67766  51.8828 238.1959 0001142  18.2319 341.8708 15.36351670  4489
KUIPER-00178            
1 67767U 26030D   26064.73061662  .00025706  00000+0  74542-3 0  9997
2 67767  51.8836 238.2871 0006183  34.8375 325.3015 15.35354027  4485
KUIPER-00180            
1 67768U 26030E   26064.69662605  .00011504  00000+0  37583-3 0  9992
2 67768  51.8807 238.7941 0014335  56.8841 303.3517 15.32112846  4477
KUIPER-00197            
1 67769U 26030F   26064.71866737  .00032529  00000+0  91418-3 0  9995
2 67769  51.8834 238.2102 0001390  50.0137 310.0971 15.36224153  4482
KUIPER-00198            
1 67770U 26030G   26064.78867438  .00031493  00000+0  89549-3 0  9994
2 67770  51.8813 237.9228 0003403  36.5012 323.6206 15.35870690  4498
KUIPER-00199            
1 67771U 26030H   26064.74573259  .00025269  00000+0  75983-3 0  9997
2 67771  51.8813 238.3778 0010385  49.7237 310.4654 15.34187224  4489
KUIPER-00200            
1 67772U 26030J   26064.77525282 -.00027453  00000+0 -74354-3 0  9994
2 67772  51.8805 237.8385 0001136 208.7447 151.3477 15.36809588  4495
KUIPER-00203            
1 67773U 26030K   26064.66667824 -.01369135  00000+0 -62835-1 0  9998
2 67773  51.8820 239.0285 0011541  51.4088  78.6727 15.23098075  3036
KUIPER-00205            
1 67774U 26030L   26064.71941756  .00031667  00000+0  89064-3 0  9992
2 67774  51.8812 238.2104 0003012  10.1843 349.9204 15.36210795  4487
KUIPER-00208            
1 67775U 26030M   26064.75905675  .00037381  00000+0  11804-2 0  9992
2 67775  51.8832 238.4719 0014598  49.5668 310.6588 15.32378848  4486
KUIPER-00209            
1 67776U 26030N   26064.63417175 -.00060155  00000+0 -20050-2 0  9993
2 67776  51.8818 239.1302 0013085  56.1169 304.1058 15.30557280  4462
KUIPER-00213            
1 67777U 26030P   26064.75969397  .00022891  00000+0  72412-3 0  9998
2 67777  51.8805 238.4668 0014887  53.4630 306.7723 15.32579732  4487
KUIPER-00214            
1 67778U 26030Q   26064.71295189  .00025081  00000+0  70055-3 0  9991
2 67778  51.8838 238.1750 0000473 209.7013 150.3946 15.36554804  4487
KUIPER-00215            
1 67779U 26030R   26064.74410568  .00024849  00000+0  74525-3 0  9992
2 67779  51.8844 238.3760 0010059  49.1057 311.0799 15.34282976  4481
KUIPER-00218            
1 67780U 26030S   26064.73438055  .00034166  00000+0  99689-3 0  9995
2 67780  51.8838 238.3119 0006696  39.6512 320.4963 15.35006233  4484
KUIPER-00220            
1 67781U 26030T   26064.74057620  .00024547  00000+0  72982-3 0  9991
2 67781  51.8815 238.3450 0008351  44.9688 315.1973 15.34579695  4489
KUIPER-00222            
1 67782U 26030U   26064.69814470  .00012303  00000+0  39689-3 0  9994
2 67782  51.8796 238.8016 0017132  51.8883 308.3643 15.32411423  4471
KUIPER-00223            
1 67783U 26030V   26064.74746830 -.00003315  00000+0 -87492-4 0  9996
2 67783  51.8830 238.3941 0012219  48.0639 312.1386 15.34030274  4482
KUIPER-00225            
1 67784U 26030W   26064.72527745  .00036639  00000+0  10439-2 0  9995
2 67784  51.8814 238.2483 0004338  27.9580 332.1639 15.35730206  4485
KUIPER-00226            
1 67785U 26030X   26064.70961838  .00004842  00000+0  16953-3 0  9998
2 67785  51.8805 238.8764 0019802  62.1997 298.0991 15.31206757  4474
KUIPER-00259            
1 67786U 26030Y   26064.73643879  .00034647  00000+0  10136-2 0  9996
2 67786  51.8818 238.3194 0008398  38.1041 322.0537 15.34904919  4485
KUIPER-00260            
1 67787U 26030Z   26064.71749527  .00026069  00000+0  73391-3 0  9994
2 67787  51.8796 238.1961 0001079  53.7070 306.4016 15.36286654  4394
KUIPER-00262            
1 67788U 26030AA  26064.71391162  .00027493  00000+0  76545-3 0  9999
2 67788  51.8807 238.1759 0000328 124.2316 235.8702 15.36603235  4481
KUIPER-00266            
1 67789U 26030AB  26064.71426240  .00001906  00000+0  74716-4 0  9996
2 67789  51.8806 238.9040 0022553  61.7246 298.6010 15.30933202  4475
KUIPER-00268            
1 67790U 26030AC  26064.65766794  .00031330  00000+0  89226-3 0  9997
2 67790  51.8843 238.5524 0002511  36.0636 324.0519 15.35825832  4473
KUIPER-00270            
1 67791U 26030AD  26064.74193688  .00024300  00000+0  72461-3 0  9996
2 67791  51.8813 238.3532 0010162  45.6470 314.5347 15.34476159  4488
KUIPER-00274            
1 67792U 26030AE  26064.70353839 -.00049366  00000+0 -16099-2 0  9994
2 67792  51.8815 238.8431 0017974  60.7494 299.5284 15.31086175  4479
KUIPER-00275            
1 67793U 26030AF  26064.73930583  .00023668  00000+0  70472-3 0  9996
2 67793  51.8845 238.3451 0008975  42.6068 317.5612 15.34549227  4489
KUIPER-00276            
1 67794U 26030AG  26064.70744883 -.00035166  00000+0 -11330-2 0  9995
2 67794  51.8812 238.8668 0019075  54.5943 305.6820 15.31293588  4477
KUIPER-00279            
1 67795U 26030AH  26064.73238324  .00032335  00000+0  93747-3 0  9993
2 67795  51.8805 238.2905 0006545  36.0821 324.0606 15.35235109  4483
